format  = 'OEF2.0'       ! file format
rectype = 'ML'           ! record type (1L/ML)
refsys  = ECLM J2000     ! default reference system
END_OF_HEADER
2024BX1
! Keplerian elements: a, e, i, long. node, arg. peric., mean anomaly
 KEP   1.4072316924530104E+00  4.1606666882138332E-01   8.0407934385154 300.1066764039202 243.9930457319428  3.3274363982335905E+02
 MJD     60329.999477193 TDT
 MAG  32.681  0.150
! Non-gravitational parameters: model used, number of model parameters, dimension
 LSP   0  0    6
! PERIHELION   8.2172948991420880E-01
! APHELION   1.9927338949918116E+00
! ANODE   4.0855929432720089E-01
! DNODE  -2.4077744118484539E-05
! MOID   9.6280700318321637E-06
! PERIOD   6.0974302065228107E+02
! PHA F
! VINFTY    11.6567163274557
! U_PAR 5.1
! ORB_TYPE Apollo
! RMS    1.65181E-05   8.72543E-06   1.71008E-04   4.73336E-07   8.19604E-05   6.11418E-04
 COV   2.728462491802287E-10  1.440622365769515E-10  2.808053575366354E-09
 COV  -5.343092177495876E-12  8.179666166818901E-10  1.009596881866246E-08
 COV   7.613310545875291E-11  1.484504172272496E-09 -2.803987818721706E-12
 COV   4.489842726363862E-10  5.326454569856552E-09  2.924389997315182E-08
 COV  -5.806540574934805E-11  8.882637240690122E-09  1.037925491254765E-07
 COV   2.240470785664037E-13 -1.176472631981991E-11 -1.988087770262371E-10
 COV   6.717512832671801E-09  2.922025162530414E-08  3.738319598749860E-07
 COR   1.000000000000000E+00  9.995496847142984E-01  9.940969714023578E-01
 COR  -6.833827780581724E-01  6.041883306706526E-01  9.996564968027751E-01
 COR   1.000000000000000E+00  9.948944431474327E-01 -6.789217272529767E-01
 COR   6.278271659650554E-01  9.984199284185382E-01  1.000000000000000E+00
 COR  -7.173484720356555E-01  6.337530012139014E-01  9.926823944490185E-01
 COR   1.000000000000000E+00 -3.032549745359699E-01 -6.869540641936458E-01
 COR   1.000000000000000E+00  5.830979106843257E-01  9.999999999999999E-01
